QZS-1R                  
1 49336U 21096A   24089.88656007 -.00000202  00000+0  00000+0 0  9999
2 49336  35.7801  91.7282 0750958 269.9118 279.6140  1.00286870  8896
